STARLINK-2022           
1 47643U 21012Z   24171.51354180  .00006459  00000+0  45205-3 0  9994
2 47643  53.0544 351.6070 0001331 103.1929 256.9209 15.06407355185588
